ONEWEB-0269             
1 48987U 21060W   24068.59533577  .00000108  00000+0  24892-3 0  9995
2 48987  87.9102  34.0967 0001957  84.4000 275.7354 13.16594640130334
ONEWEB-0270             
1 48988U 21060X   24068.46074868 -.00000065  00000+0 -20260-3 0  9994
2 48988  87.9098  34.1104 0001675  63.5977 296.5326 13.16594095130357
ONEWEB-0271             
1 48989U 21060Y   24068.60008392  .00000016  00000+0  81309-5 0  9997
2 48989  87.9099  34.0582 0001924  69.3617 290.7720 13.16594225130371
ONEWEB-0272             
1 48990U 21060Z   24068.47025778 -.00000008  00000+0 -53949-4 0  9992
2 48990  87.9099  34.1116 0001969  73.8918 286.2430 13.16593959130304
ONEWEB-0273             
1 48991U 21060AA  24068.41641604  .00000132  00000+0  31235-3 0  9998
2 48991  87.9096  34.1096 0001812  75.9159 284.2173 13.16592401130275
ONEWEB-0274             
1 48992U 21060AB  24068.59375166  .00000093  00000+0  21081-3 0  9999
2 48992  87.9107  34.0813 0002443  76.7304 283.4099 13.16593767130338
ONEWEB-0275             
1 48993U 21060AC  24068.43066893  .00000107  00000+0  24604-3 0  9997
2 48993  87.9098  34.1035 0001827  76.2139 283.9195 13.16593486130241
ONEWEB-0276             
1 48994U 21060AD  24068.46392051  .00000015  00000+0  67925-5 0  9992
2 48994  87.9097  34.0927 0001727  72.4881 287.6439 13.16593745130263
ONEWEB-0277             
1 48995U 21060AE  24068.40058191  .00000047  00000+0  90320-4 0  9990
2 48995  87.9095  34.1438 0001910  64.5996 295.5332 13.16592821130245
ONEWEB-0278             
1 48996U 21060AF  24068.46708570 -.00000023  00000+0 -94459-4 0  9993
2 48996  87.9098  34.0887 0001678  91.5757 268.5566 13.16593794130386
ONEWEB-0279             
1 48997U 21060AG  24068.39901549  .00000036  00000+0  61291-4 0  9997
2 48997  87.9095  34.1004 0001979  68.6027 291.5315 13.16594971130303
ONEWEB-0280             
1 48998U 21060AH  24068.41323983  .00000113  00000+0  26151-3 0  9992
2 48998  87.9098  34.0980 0002061  63.5711 296.5631 13.16592373130249
ONEWEB-0281             
1 48999U 21060AJ  24068.41958018  .00000170  00000+0  41137-3 0  9990
2 48999  87.9095  34.0996 0002126  82.7371 277.4001 13.16592403130312
ONEWEB-0282             
1 49000U 21060AK  24068.44967463  .00000022  00000+0  24880-4 0  9994
2 49000  87.9098  34.1104 0001661  71.4142 288.7169 13.16594300130290
ONEWEB-0283             
1 49001U 21060AL  24068.59058457  .00000111  00000+0  25693-3 0  9996
2 49001  87.9097  34.0897 0001948  72.7102 287.4242 13.16594141130321
ONEWEB-0284             
1 49002U 21060AM  24068.43225307  .00000115  00000+0  26720-3 0  9996
2 49002  87.9090  34.1108 0001670  77.1787 282.9530 13.16593439130285
ONEWEB-0285             
1 49075U 21075A   24068.53353641  .00000459  00000+0  12400-2 0  9996
2 49075  87.9034 155.9847 0001839 105.2547 254.8785 13.12441942126258
ONEWEB-0286             
1 49076U 21075B   24068.50481580 -.00000465  00000+0 -13275-2 0  9998
2 49076  87.9029 155.9962 0001950 107.0041 253.1302 13.12445664125604
ONEWEB-0287             
1 49077U 21075C   24068.57735211  .00000018  00000+0  12267-4 0  9993
2 49077  87.9264 171.0934 0001843 120.1778 239.9536 13.17650915124240
ONEWEB-0288             
1 49078U 21075D   24068.26020017 -.00000189  00000+0 -56142-3 0  9991
2 49078  87.9031 156.0484 0001873 112.4757 247.6570 13.12440830126198
ONEWEB-0289             
1 49079U 21075E   24068.52990237  .00000035  00000+0  57366-4 0  9999
2 49079  87.9264 171.1283 0001839 101.0031 259.1307 13.17651608124818
ONEWEB-0290             
1 49080U 21075F   24068.51248228 -.00001818  00000+0 -47160-2 0  9997
2 49080  87.9263 171.0947 0002430 115.4441 244.6942 13.17657011124220
ONEWEB-0291             
1 49081U 21075G   24068.57260791  .00000082  00000+0  17900-3 0  9993
2 49081  87.9259 171.1091 0001780 117.4021 242.7292 13.17650881124225
ONEWEB-0293             
1 49082U 21075H   24068.52199163  .00000045  00000+0  83490-4 0  9990
2 49082  87.9263 171.1276 0001612 113.9726 246.1575 13.17647083124247
ONEWEB-0294             
1 49083U 21075J   24068.49527261 -.00000340  00000+0 -98073-3 0  9993
2 49083  87.9029 156.0008 0001486 127.1279 232.9986 13.12442297125618
ONEWEB-0295             
1 49084U 21075K   24068.52356569  .00000060  00000+0  12050-3 0  9997
2 49084  87.9265 171.1034 0001996 121.9762 238.1564 13.17651623124207
ONEWEB-0296             
1 49085U 21075L   24068.47780184  .00000130  00000+0  32532-3 0  9991
2 49085  87.9033 156.0041 0001998 129.8549 230.2756 13.12440844125611
ONEWEB-0297             
1 49086U 21075M   24068.50956862 -.00000215  00000+0 -63421-3 0  9991
2 49086  87.9040 155.9969 0002024 104.4008 255.7346 13.12442767126228
ONEWEB-0298             
1 49087U 21075N   24068.52672923  .00000078  00000+0  16717-3 0  9998
2 49087  87.9263 171.1220 0002012 112.7415 247.3929 13.17651081124236
ONEWEB-0299             
1 49088U 21075P   24068.52831153  .00001819  00000+0  46518-2 0  9996
2 49088  87.9262 171.0956 0002489 113.8234 246.3159 13.17642883124212
ONEWEB-0300             
1 49089U 21075Q   24068.50004112 -.00000309  00000+0 -89318-3 0  9993
2 49089  87.9029 155.9977 0002179 103.9673 256.1698 13.12442526126240
ONEWEB-0301             
1 49090U 21075R   24068.48415017 -.00000103  00000+0 -32138-3 0  9992
2 49090  87.9031 156.0036 0002052  97.2146 262.9215 13.12440901125607
ONEWEB-0302             
1 49091U 21075S   24068.47145719  .00000265  00000+0  70130-3 0  9992
2 49091  87.9031 156.0037 0001853 114.9047 245.2275 13.12440837125589
ONEWEB-0304             
1 49092U 21075T   24068.57893224  .00000085  00000+0  18570-3 0  9995
2 49092  87.9265 171.0976 0001885 118.6591 241.4730 13.17651472124192
ONEWEB-0305             
1 49093U 21075U   24068.57102206  .00000087  00000+0  19008-3 0  9998
2 49093  87.9262 171.0888 0002212 119.1078 241.0275 13.17650795124224
ONEWEB-0308             
1 49094U 21075V   24068.46511780  .00000436  00000+0  11774-2 0  9997
2 49094  87.9031 156.0055 0001967 103.9160 256.2188 13.12442336125594
ONEWEB-0309             
1 49095U 21075W   24068.57577037  .00000103  00000+0  23220-3 0  9998
2 49095  87.9264 171.0891 0001464 124.4675 235.6595 13.17650571124194
ONEWEB-0310             
1 49096U 21075X   24068.47938865  .00000100  00000+0  24152-3 0  9990
2 49096  87.9041 156.0010 0001701 107.3131 252.8183 13.12440666126222
ONEWEB-0311             
1 49097U 21075Y   24068.58209271  .00000093  00000+0  20686-3 0  9994
2 49097  87.9266 171.0884 0002246 116.8656 243.2705 13.17651156124247
ONEWEB-0312             
1 49098U 21075Z   24068.52039024 -.00000230  00000+0 -62455-3 0  9991
2 49098  87.9264 171.1328 0001889 123.5270 236.6042 13.17649336124213
ONEWEB-0313             
1 49099U 21075AA  24068.57418887  .00000130  00000+0  30119-3 0  9994
2 49099  87.9264 171.1245 0001907 118.7992 241.3331 13.17650962124211
ONEWEB-0314             
1 49100U 21075AB  24068.56785765  .00000048  00000+0  90897-4 0  9996
2 49100  87.9258 171.0878 0001935 125.3961 234.7351 13.17650722124187
ONEWEB-0315             
1 49101U 21075AC  24068.53023387 -.00000142  00000+0 -42871-3 0  9994
2 49101  87.8996 155.9818 0001532  93.1325 266.9979 13.12441973127211
ONEWEB-0316             
1 49102U 21075AD  24068.46356193  .00000087  00000+0  18850-3 0  9997
2 49102  87.9214 140.8093 0002208 107.6865 252.4509 13.18687074127720
ONEWEB-0317             
1 49103U 21075AE  24068.52386922  .00000320  00000+0  85532-3 0  9999
2 49103  87.9033 155.9963 0001679 105.7818 254.3496 13.12443618126230
ONEWEB-0318             
1 49104U 21075AF  24068.23277385  .00000066  00000+0  13539-3 0  9995
2 49104  87.9211 140.8510 0002284 107.5450 252.5932 13.18687171127657
ONEWEB-0319             
1 49105U 21075AG  24068.58368508  .00000062  00000+0  12762-3 0  9995
2 49105  87.9264 171.1139 0002374 118.3992 241.7379 13.17650328124229
ONEWEB-0323             
1 49106U 21075AH  24068.51433685 -.00000045  00000+0 -16035-3 0  9998
2 49106  87.9031 155.9859 0002089 111.7700 248.3651 13.12444025125595
ONEWEB-0329             
1 49107U 21075AJ  24068.51565488  .00000071  00000+0  14863-3 0  9990
2 49107  87.9265 171.1310 0001896 114.5829 245.5500 13.17651253124190
ONEWEB-0330             
1 49108U 21075AK  24068.51723453  .00000074  00000+0  15734-3 0  9990
2 49108  87.9263 171.1305 0001780 116.8776 243.2537 13.17651722124232
ONEWEB-0292             
1 49186U 21083A   24068.44763196  .00000407  00000+0  10783-2 0  9993
2 49186  87.8955 125.6322 0002111  99.7689 260.3678 13.13469408121876
ONEWEB-0303             
1 49187U 21083B   24068.45725106  .00000088  00000+0  19050-3 0  9996
2 49187  87.9212 140.8056 0002215 106.9590 253.1785 13.18684983120492
ONEWEB-0306             
1 49188U 21083C   24068.44776270  .00001631  00000+0  41040-2 0  9992
2 49188  87.9210 140.7958 0002538 102.1738 257.9679 13.18676292120534
ONEWEB-0307             
1 49189U 21083D   24068.59444900  .00000211  00000+0  54158-3 0  9999
2 49189  87.8956 125.6019 0002001 101.3553 258.7801 13.13471449121890
ONEWEB-0320             
1 49190U 21083E   24068.45409271  .00000081  00000+0  17145-3 0  9998
2 49190  87.9209 140.8169 0001900 103.1854 256.9490 13.18687928120495
ONEWEB-0321             
1 49191U 21083F   24068.45197454  .00000088  00000+0  18346-3 0  9997
2 49191  87.9124  79.7665 0001794  81.9256 278.2081 13.20772273127179
ONEWEB-0322             
1 49192U 21083G   24068.51428414  .00000102  00000+0  24355-3 0  9992
2 49192  87.8955 125.6067 0001544  91.9103 268.2202 13.13468844123160
ONEWEB-0324             
1 49193U 21083H   24068.43984897  .00000081  00000+0  17160-3 0  9998
2 49193  87.9212 140.8027 0001857 113.8746 246.2581 13.18687951120516
ONEWEB-0325             
1 49194U 21083J   24068.59635207  .00000087  00000+0  18774-3 0  9992
2 49194  87.9214 140.7846 0001946 102.3949 257.7401 13.18686445120542
